CUTE-1 (CO-55)          
1 27844U 03031E   26136.42534242  .00000186  00000+0  99595-4 0  9991
2 27844  98.6746 145.3835 0008292 279.0347  80.9894 14.24314816187153
CUBESAT XI-IV (CO-57)   
1 27848U 03031J   26136.74932397  .00000154  00000+0  86814-4 0  9998
2 27848  98.6778 145.4413 0008328 299.2340  60.8005 14.23602807186904
CUBESAT XI-V            
1 28895U 05043F   26135.37961343  .00000741  00000+0  12488-3 0  9994
2 28895  98.2948 290.3214 0013026 313.0591  46.9524 14.72539240 96922
CUTE-1.7+APD II (CO-65) 
1 32785U 08021C   26136.88985128  .00004121  00000+0  26370-3 0  9991
2 32785  97.8264 117.6689 0010276 128.7006 231.5143 15.09131603980477
CANX-2                  
1 32790U 08021H   26136.78384352  .00001848  00000+0  13337-3 0  9990
2 32790  97.8622 115.9617 0011469 142.2581 217.9451 15.05373133980086
SEEDS II (CO-66)        
1 32791U 08021J   26136.78723764  .00015703  00000+0  51656-3 0  9996
2 32791  97.7519 133.2158 0004890  77.0859 283.0928 15.31606988982482
SWISSCUBE               
1 35932U 09051B   26136.69594352  .00000636  00000+0  13551-3 0  9990
2 35932  98.4056  44.0343 0005943 321.3800  38.6975 14.62415639884551
BEESAT-1                
1 35933U 09051C   26136.82601626  .00000518  00000+0  11403-3 0  9992
2 35933  98.3985  43.8674 0004762 339.9476  20.1537 14.61664677884601
ITUPSAT1                
1 35935U 09051E   26136.85801748  .00000476  00000+0  10847-3 0  9998
2 35935  98.4070  43.1249 0007171 346.8195  13.2816 14.60389274884162
TISAT 1                 
1 36799U 10035E   26136.81161912  .00016896  00000+0  57617-3 0  9998
2 36799  98.0705  80.6134 0003191  46.0580 314.0921 15.30437919862901
AEROCUBE 4.5A           
1 38767U 12048K   26136.44189899  .00180276  00000+0  99371-3 0  9991
2 38767  64.6277 141.4098 0018618 216.5222 143.4664 15.78668078367624
STRAND-1                
1 39090U 13009E   26136.72600486  .00000171  00000+0  72075-4 0  9998
2 39090  98.3916 317.7362 0007972 332.7119  27.3648 14.37143381692540
BRITE-AUSTRIA           
1 39091U 13009F   26136.44675937  .00000105  00000+0  50264-4 0  9994
2 39091  98.3987 316.6696 0009720 341.7953  18.2885 14.36528593692493
NEE-01 PEGASO           
1 39151U 13018B   26136.84514407  .00001147  00000+0  11477-3 0  9998
2 39151  98.1182 279.9712 0011305 266.7567  93.2358 14.93493026706022
POPACS 2                
1 39269U 13055E   26136.83241990  .00011215  00000+0  19294-3 0  9994
2 39269  80.9919 180.0667 0418729 294.6614  61.1537 14.90483974658548
POPACS 3                
1 39270U 13055F   26136.63902311  .00013653  00000+0  32531-3 0  9992
2 39270  81.0017 263.3692 0554831 165.9259 195.8151 14.55329746633967
ZACUBE-1 (TSHEPISOSAT)  
1 39417U 13066B   26136.87679713  .00003131  00000+0  24635-3 0  9996
2 39417  97.8122  99.0440 0041362 358.2569   1.8503 15.00930533676033
WNISAT-1                
1 39423U 13066H   26136.84891794  .00000287  00000+0  61381-4 0  9994
2 39423  97.7163 288.2364 0162397 331.0620  28.1647 14.58020495662169
TRITON-1                
1 39427U 13066M   26136.68970589  .00001273  00000+0  15823-3 0  9995
2 39427  97.8272  47.2142 0089800 338.0604  21.6773 14.81557878669428
GOMX-1                  
1 39430U 13066Q   26136.79313270  .00001047  00000+0  16385-3 0  9992
2 39430  97.6508 339.2365 0128741 177.6681 182.5154 14.69325444665304
CUBEBUG-2 (LO-74)       
1 39440U 13066AA  26136.84470106  .00001744  00000+0  16579-3 0  9990
2 39440  97.8896  85.7015 0059076 130.2272 230.4138 14.93504727672311
NEE-02 KRYSAOR          
1 39441U 13066AB  26136.77478811  .00000970  00000+0  11184-3 0  9991
2 39441  97.8884  76.2199 0066380 171.3925 188.8446 14.86491018671535
FUNCUBE-1 (AO-73)       
1 39444U 13066AE  26136.89618544  .00005146  00000+0  32477-3 0  9994
2 39444  97.8262 107.7027 0034943 312.5804  47.2476 15.09058385674944
UWE-3                   
1 39446U 13066AG  26136.86460146  .00002724  00000+0  23763-3 0  9993
2 39446  97.8684  92.7394 0050507  64.7810 295.8635 14.96737192672896
BRITE-CA1 (TORONTO)     
1 40020U 14033L   26136.78298862  .00000410  00000+0  69346-4 0  9991
2 40020  97.9695 266.2986 0078999  18.4727 341.9320 14.72631022637593
DUCHIFAT-1              
1 40021U 14033M   26136.81250453  .00068262  00000+0  88080-3 0  9994
2 40021  98.0503 191.7227 0006056 176.8315 183.2979 15.58749215650851
NANOSATC-BR1            
1 40024U 14033Q   26136.83167189  .00014518  00000+0  49634-3 0  9999
2 40024  98.0741 166.4651 0001709 300.8644  59.2427 15.30398168649183
QB50P1                  
1 40025U 14033R   26136.83917418  .00006818  00000+0  34130-3 0  9997
2 40025  98.0972 145.7996 0007942 344.9054  15.1940 15.17739278648277
QB50P2                  
1 40032U 14033Y   26136.85811907  .00005338  00000+0  29199-3 0  9998
2 40032  98.0751 131.8004 0005709 285.8571  74.2030 15.14728372647929
PERSEUS-M2              
1 40037U 14033AD  26136.81603571  .00001541  00000+0  14481-3 0  9995
2 40037  97.9948  86.7236 0013271  48.9202 311.3162 14.95408068646090
