OBJECT_NAME,OBJECT_ID,EPOCH,MEAN_MOTION,ECCENTRICITY,INCLINATION,RA_OF_ASC_NODE,ARG_OF_PERICENTER,MEAN_ANOMALY,EPHEMERIS_TYPE,CLASSIFICATION_TYPE,NORAD_CAT_ID,ELEMENT_SET_NO,REV_AT_EPOCH,BSTAR,MEAN_MOTION_DOT,MEAN_MOTION_DDOT
CUTE-1 (CO-55),2003-031E,2026-05-16T10:12:29.585088,14.24314816,.0008292,98.6746,145.3835,279.0347,80.9894,0,U,27844,999,18715,.99595E-4,.186E-5,0
CUBESAT XI-IV (CO-57),2003-031J,2026-05-16T17:59:01.591008,14.23602807,.0008328,98.6778,145.4413,299.2340,60.8005,0,U,27848,999,18690,.86814E-4,.154E-5,0
CUBESAT XI-V,2005-043F,2026-05-15T09:06:38.600352,14.72539240,.00130267,98.2948,290.3214,313.0591,46.9524,0,U,28895,999,9692,.1248788E-3,.741E-5,0
CUTE-1.7+APD II (CO-65),2008-021C,2026-05-16T21:21:23.150592,15.09131603,.0010276,97.8264,117.6689,128.7006,231.5143,0,U,32785,999,98047,.2637E-3,.4121E-4,0
CANX-2,2008-021H,2026-05-16T18:48:44.080128,15.05373133,.0011469,97.8622,115.9617,142.2581,217.9451,0,U,32790,999,98008,.13337E-3,.1848E-4,0
SEEDS II (CO-66),2008-021J,2026-05-16T18:53:37.332096,15.31606988,.000489,97.7519,133.2158,77.0859,283.0928,0,U,32791,999,98248,.51656E-3,.15703E-3,0
SWISSCUBE,2009-051B,2026-05-16T16:42:09.520128,14.62415639,.0005943,98.4056,44.0343,321.3800,38.6975,0,U,35932,999,88455,.13551E-3,.636E-5,0
BEESAT-1,2009-051C,2026-05-16T19:49:27.804864,14.61664677,.0004762,98.3985,43.8674,339.9476,20.1537,0,U,35933,999,88460,.11403E-3,.518E-5,0
ITUPSAT1,2009-051E,2026-05-16T20:35:32.710272,14.60389274,.0007171,98.4070,43.1249,346.8195,13.2816,0,U,35935,999,88416,.10847E-3,.476E-5,0
TISAT 1,2010-035E,2026-05-16T19:28:43.891968,15.30437919,.0003191,98.0705,80.6134,46.0580,314.0921,0,U,36799,999,86290,.57617E-3,.16896E-3,0
AEROCUBE 4.5A,2012-048K,2026-05-16T10:36:20.072736,15.78668078,.0018618,64.6277,141.4098,216.5222,143.4664,0,U,38767,999,36762,.99371E-3,.180276E-2,0
STRAND-1,2013-009E,2026-05-16T17:25:26.819904,14.37143381,.0007972,98.3916,317.7362,332.7119,27.3648,0,U,39090,999,69254,.72075E-4,.171E-5,0
BRITE-AUSTRIA,2013-009F,2026-05-16T10:43:20.009568,14.36528593,.000972,98.3987,316.6696,341.7953,18.2885,0,U,39091,999,69249,.50264E-4,.105E-5,0
NEE-01 PEGASO,2013-018B,2026-05-16T20:17:00.447648,14.93493026,.0011305,98.1182,279.9712,266.7567,93.2358,0,U,39151,999,70602,.11477E-3,.1147E-4,0
POPACS 2,2013-055E,2026-05-16T19:58:41.079360,14.90483974,.0418729,80.9919,180.0667,294.6614,61.1537,0,U,39269,999,65854,.19294E-3,.11215E-3,0
POPACS 3,2013-055F,2026-05-16T15:20:11.596704,14.55329746,.0554831,81.0017,263.3692,165.9259,195.8151,0,U,39270,999,63396,.32531E-3,.13653E-3,0
ZACUBE-1 (TSHEPISOSAT),2013-066B,2026-05-16T21:02:35.272032,15.00930533,.0041362,97.8122,99.0440,358.2569,1.8503,0,U,39417,999,67603,.24635E-3,.3131E-4,0
WNISAT-1,2013-066H,2026-05-16T20:22:26.510016,14.58020495,.0162397,97.7163,288.2364,331.0620,28.1647,0,U,39423,999,66216,.61381E-4,.287E-5,0
TRITON-1,2013-066M,2026-05-16T16:33:10.588896,14.81557878,.00898,97.8272,47.2142,338.0604,21.6773,0,U,39427,999,66942,.15823E-3,.1273E-4,0
GOMX-1,2013-066Q,2026-05-16T19:02:06.665280,14.69325444,.0128741,97.6508,339.2365,177.6681,182.5154,0,U,39430,999,66530,.16385E-3,.1047E-4,0
CUBEBUG-2 (LO-74),2013-066AA,2026-05-16T20:16:22.171584,14.93504727,.0059076,97.8896,85.7015,130.2272,230.4138,0,U,39440,999,67231,.16579E-3,.1744E-4,0
NEE-02 KRYSAOR,2013-066AB,2026-05-16T18:35:41.692704,14.86491018,.006638,97.8884,76.2199,171.3925,188.8446,0,U,39441,999,67153,.11184E-3,.97E-5,0
FUNCUBE-1 (AO-73),2013-066AE,2026-05-16T21:30:30.422016,15.09058385,.0034943,97.8262,107.7027,312.5804,47.2476,0,U,39444,999,67494,.32477E-3,.5146E-4,0
UWE-3,2013-066AG,2026-05-16T20:45:01.566144,14.96737192,.0050507,97.8684,92.7394,64.7810,295.8635,0,U,39446,999,67289,.23763E-3,.2724E-4,0
BRITE-CA1 (TORONTO),2014-033L,2026-05-16T18:47:30.216768,14.72631022,.0078999,97.9695,266.2986,18.4727,341.9320,0,U,40020,999,63759,.69346E-4,.41E-5,0
DUCHIFAT-1,2014-033M,2026-05-16T19:30:00.391392,15.58749215,.0006056,98.0503,191.7227,176.8315,183.2979,0,U,40021,999,65085,.8808E-3,.68262E-3,0
NANOSATC-BR1,2014-033Q,2026-05-16T19:57:36.451296,15.30398168,.0001709,98.0741,166.4651,300.8644,59.2427,0,U,40024,999,64918,.49634E-3,.14518E-3,0
QB50P1,2014-033R,2026-05-16T20:08:24.649152,15.17739278,.0007942,98.0972,145.7996,344.9054,15.1940,0,U,40025,999,64827,.3413E-3,.6818E-4,0
QB50P2,2014-033Y,2026-05-16T20:35:41.487648,15.14728372,.0005709,98.0751,131.8004,285.8571,74.2030,0,U,40032,999,64792,.29199E-3,.5338E-4,0
PERSEUS-M2,2014-033AD,2026-05-16T19:35:05.485344,14.95408068,.0013271,97.9948,86.7236,48.9202,311.3162,0,U,40037,999,64609,.14481E-3,.1541E-4,0
